[{"OBJECT_NAME":"STARLINK-1114","OBJECT_ID":"2020-001P","EPOCH":"2026-03-09T22:29:13.634304","MEAN_MOTION":15.50335733,"ECCENTRICITY":0.00083622,"INCLINATION":53.05,"RA_OF_ASC_NODE":328.1784,"ARG_OF_PERICENTER":120.9546,"MEAN_ANOMALY":239.2285,"EPHEMERIS_TYPE":0,"CLASSIFICATION_TYPE":"U","NORAD_CAT_ID":44927,"ELEMENT_SET_NO":999,"REV_AT_EPOCH":34013,"BSTAR":0.0018611875,"MEAN_MOTION_DOT":0.00108516,"MEAN_MOTION_DDOT":0},{"OBJECT_NAME":"FLOCK 4Q-33","OBJECT_ID":"2023-174BE","EPOCH":"2026-03-09T17:24:33.346080","MEAN_MOTION":15.51260129,"ECCENTRICITY":0.00075156,"INCLINATION":97.3868,"RA_OF_ASC_NODE":157.6165,"ARG_OF_PERICENTER":134.5918,"MEAN_ANOMALY":225.5948,"EPHEMERIS_TYPE":0,"CLASSIFICATION_TYPE":"U","NORAD_CAT_ID":58308,"ELEMENT_SET_NO":999,"REV_AT_EPOCH":13038,"BSTAR":0.00064149158,"MEAN_MOTION_DOT":0.00037655,"MEAN_MOTION_DDOT":0}]
